[{"OBJECT_NAME":"DONGPO 08","OBJECT_ID":"2022-167E","EPOCH":"2026-03-09T22:57:52.742880","MEAN_MOTION":15.31542505,"ECCENTRICITY":0.00092155,"INCLINATION":97.6764,"RA_OF_ASC_NODE":233.3854,"ARG_OF_PERICENTER":153.9158,"MEAN_ANOMALY":206.2548,"EPHEMERIS_TYPE":0,"CLASSIFICATION_TYPE":"U","NORAD_CAT_ID":54686,"ELEMENT_SET_NO":999,"REV_AT_EPOCH":18012,"BSTAR":0.0004734784,"MEAN_MOTION_DOT":0.0001437,"MEAN_MOTION_DDOT":0},{"OBJECT_NAME":"STARLINK-34509","OBJECT_ID":"2025-133N","EPOCH":"2026-03-09T13:16:13.960704","MEAN_MOTION":15.30223113,"ECCENTRICITY":0.0001236,"INCLINATION":53.1577,"RA_OF_ASC_NODE":117.7025,"ARG_OF_PERICENTER":92.0549,"MEAN_ANOMALY":268.0593,"EPHEMERIS_TYPE":0,"CLASSIFICATION_TYPE":"U","NORAD_CAT_ID":64484,"ELEMENT_SET_NO":999,"REV_AT_EPOCH":4116,"BSTAR":0.00079704,"MEAN_MOTION_DOT":0.00023338,"MEAN_MOTION_DDOT":0}]
